{
  "type": "FeatureCollection",
  "features": [
    {
      "type": "Feature",
      "properties": {
        "norad_id": 34079,
        "name": "IRIDIUM 33 DEB",
        "group": "iridium-33-debris",
        "lat": -15.532675916465386,
        "lon": -171.49003861274687,
        "alt_km": 626.4741864325397,
        "timestamp": "2025-12-15T07:02:37.999959+00:00",
        "meta_object_name": "IRIDIUM 33 DEB",
        "meta_object_id": "1997-051CN",
        "meta_epoch": "2025-12-14T19:40:01.524576",
        "meta_mean_motion": 14.8359297,
        "meta_eccentricity": 0.0005339,
        "meta_inclination": 86.378,
        "meta_ra_of_asc_node": 7.7167,
        "meta_arg_of_pericenter": 1.7178,
        "meta_mean_anomaly": 183.6258,
        "meta_ephemeris_type": 0,
        "meta_classification_type": "U",
        "meta_norad_cat_id": 34079,
        "meta_element_set_no": 999,
        "meta_rev_at_epoch": 89008,
        "meta_bstar": 0.0013395573,
        "meta_mean_motion_dot": 0.00011073,
        "meta_mean_motion_ddot": 0,
        "tle_line1": "1 34079U 97051CN  25348.81946209  .00011073  00000+0  13396-2 0  9991",
        "tle_line2": "2 34079  86.3780   7.7167 0005339   1.7178 183.6258 14.83592970890085"
      },
      "geometry": {
        "type": "Point",
        "coordinates": [
          -171.49003861274687,
          -15.532675916465386
        ]
      }
    },
    {
      "type": "Feature",
      "properties": {
        "norad_id": 34088,
        "name": "IRIDIUM 33 DEB",
        "group": "iridium-33-debris",
        "lat": -0.9111955110200349,
        "lon": 29.493390541889006,
        "alt_km": 600.5066568444317,
        "timestamp": "2025-12-15T07:02:37.999969+00:00",
        "meta_object_name": "IRIDIUM 33 DEB",
        "meta_object_id": "1997-051CX",
        "meta_epoch": "2025-12-14T15:29:06.397152",
        "meta_mean_motion": 14.91497606,
        "meta_eccentricity": 0.00059409,
        "meta_inclination": 86.3853,
        "meta_ra_of_asc_node": 29.8488,
        "meta_arg_of_pericenter": 170.2926,
        "meta_mean_anomaly": 310.3391,
        "meta_ephemeris_type": 0,
        "meta_classification_type": "U",
        "meta_norad_cat_id": 34088,
        "meta_element_set_no": 999,
        "meta_rev_at_epoch": 88770,
        "meta_bstar": 0.001772792,
        "meta_mean_motion_dot": 0.00017796,
        "meta_mean_motion_ddot": 0,
        "tle_line1": "1 34088U 97051CX  25348.64521293  .00017796  00000+0  17728-2 0  9995",
        "tle_line2": "2 34088  86.3853  29.8488 0005940 170.2926 310.3391 14.91497606887709"
      },
      "geometry": {
        "type": "Point",
        "coordinates": [
          29.493390541889006,
          -0.9111955110200349
        ]
      }
    },
    {
      "type": "Feature",
      "properties": {
        "norad_id": 34091,
        "name": "IRIDIUM 33 DEB",
        "group": "iridium-33-debris",
        "lat": 81.68091457640963,
        "lon": -140.28504853816096,
        "alt_km": 638.8473157579783,
        "timestamp": "2025-12-15T07:02:37.999979+00:00",
        "meta_object_name": "IRIDIUM 33 DEB",
        "meta_object_id": "1997-051DA",
        "meta_epoch": "2025-12-14T16:01:12.076896",
        "meta_mean_motion": 14.82009741,
        "meta_eccentricity": 0.00335461,
        "meta_inclination": 86.3414,
        "meta_ra_of_asc_node": 65.9512,
        "meta_arg_of_pericenter": 286.2337,
        "meta_mean_anomaly": 73.5195,
        "meta_ephemeris_type": 0,
        "meta_classification_type": "U",
        "meta_norad_cat_id": 34091,
        "meta_element_set_no": 999,
        "meta_rev_at_epoch": 87895,
        "meta_bstar": 0.003530902,
        "meta_mean_motion_dot": 0.00028393,
        "meta_mean_motion_ddot": 0,
        "tle_line1": "1 34091U 97051DA  25348.66750089  .00028393  00000+0  35309-2 0  9998",
        "tle_line2": "2 34091  86.3414  65.9512 0033546 286.2337  73.5195 14.82009741878958"
      },
      "geometry": {
        "type": "Point",
        "coordinates": [
          -140.28504853816096,
          81.68091457640963
        ]
      }
    },
    {
      "type": "Feature",
      "properties": {
        "norad_id": 34097,
        "name": "IRIDIUM 33 DEB",
        "group": "iridium-33-debris",
        "lat": -85.77753994825362,
        "lon": -63.87754355381887,
        "alt_km": 774.5348890115147,
        "timestamp": "2025-12-15T07:02:37.999990+00:00",
        "meta_object_name": "IRIDIUM 33 DEB",
        "meta_object_id": "1997-051DG",
        "meta_epoch": "2025-12-14T13:02:17.769408",
        "meta_mean_motion": 14.34795196,
        "meta_eccentricity": 0.00823768,
        "meta_inclination": 86.2009,
        "meta_ra_of_asc_node": 0.6123,
        "meta_arg_of_pericenter": 356.317,
        "meta_mean_anomaly": 3.7408,
        "meta_ephemeris_type": 0,
        "meta_classification_type": "U",
        "meta_norad_cat_id": 34097,
        "meta_element_set_no": 999,
        "meta_rev_at_epoch": 87145,
        "meta_bstar": 0.0013973376,
        "meta_mean_motion_dot": 4.135e-05,
        "meta_mean_motion_ddot": 0,
        "tle_line1": "1 34097U 97051DG  25348.54326122  .00004135  00000+0  13973-2 0  9999",
        "tle_line2": "2 34097  86.2009   0.6123 0082376 356.3170   3.7408 14.34795196871459"
      },
      "geometry": {
        "type": "Point",
        "coordinates": [
          -63.87754355381887,
          -85.77753994825362
        ]
      }
    },
    {
      "type": "Feature",
      "properties": {
        "norad_id": 34145,
        "name": "IRIDIUM 33 DEB",
        "group": "iridium-33-debris",
        "lat": -70.83307870013542,
        "lon": 162.37962712624707,
        "alt_km": 796.7305148238756,
        "timestamp": "2025-12-15T07:02:38.000001+00:00",
        "meta_object_name": "IRIDIUM 33 DEB",
        "meta_object_id": "1997-051DY",
        "meta_epoch": "2025-12-14T16:33:57.762432",
        "meta_mean_motion": 14.42306134,
        "meta_eccentricity": 0.00557583,
        "meta_inclination": 86.2115,
        "meta_ra_of_asc_node": 331.6586,
        "meta_arg_of_pericenter": 87.6422,
        "meta_mean_anomaly": 273.116,
        "meta_ephemeris_type": 0,
        "meta_classification_type": "U",
        "meta_norad_cat_id": 34145,
        "meta_element_set_no": 999,
        "meta_rev_at_epoch": 87666,
        "meta_bstar": 0.0010627666,
        "meta_mean_motion_dot": 3.593e-05,
        "meta_mean_motion_ddot": 0,
        "tle_line1": "1 34145U 97051DY  25348.69025188  .00003593  00000+0  10628-2 0  9998",
        "tle_line2": "2 34145  86.2115 331.6586 0055758  87.6422 273.1160 14.42306134876664"
      },
      "geometry": {
        "type": "Point",
        "coordinates": [
          162.37962712624707,
          -70.83307870013542
        ]
      }
    },
    {
      "type": "Feature",
      "properties": {
        "norad_id": 34146,
        "name": "IRIDIUM 33 DEB",
        "group": "iridium-33-debris",
        "lat": -48.9542555203905,
        "lon": -15.608174135461347,
        "alt_km": 738.2394208339847,
        "timestamp": "2025-12-15T07:02:38.000012+00:00",
        "meta_object_name": "IRIDIUM 33 DEB",
        "meta_object_id": "1997-051DZ",
        "meta_epoch": "2025-12-14T23:06:53.759808",
        "meta_mean_motion": 14.49067063,
        "meta_eccentricity": 0.00257014,
        "meta_inclination": 86.2837,
        "meta_ra_of_asc_node": 348.8187,
        "meta_arg_of_pericenter": 213.7885,
        "meta_mean_anomaly": 174.5753,
        "meta_ephemeris_type": 0,
        "meta_classification_type": "U",
        "meta_norad_cat_id": 34146,
        "meta_element_set_no": 999,
        "meta_rev_at_epoch": 88139,
        "meta_bstar": 0.00071723863,
        "meta_mean_motion_dot": 2.754e-05,
        "meta_mean_motion_ddot": 0,
        "tle_line1": "1 34146U 97051DZ  25348.96312222  .00002754  00000+0  71724-3 0  9990",
        "tle_line2": "2 34146  86.2837 348.8187 0025701 213.7885 174.5753 14.49067063881393"
      },
      "geometry": {
        "type": "Point",
        "coordinates": [
          -15.608174135461347,
          -48.9542555203905
        ]
      }
    },
    {
      "type": "Feature",
      "properties": {
        "norad_id": 34159,
        "name": "IRIDIUM 33 DEB",
        "group": "iridium-33-debris",
        "lat": -71.07924054844305,
        "lon": 36.422883698206824,
        "alt_km": 752.497471888727,
        "timestamp": "2025-12-15T07:02:38.000022+00:00",
        "meta_object_name": "IRIDIUM 33 DEB",
        "meta_object_id": "1997-051EN",
        "meta_epoch": "2025-12-14T21:21:27.192384",
        "meta_mean_motion": 14.38499418,
        "meta_eccentricity": 0.00260466,
        "meta_inclination": 86.3508,
        "meta_ra_of_asc_node": 47.3247,
        "meta_arg_of_pericenter": 280.2682,
        "meta_mean_anomaly": 79.558,
        "meta_ephemeris_type": 0,
        "meta_classification_type": "U",
        "meta_norad_cat_id": 34159,
        "meta_element_set_no": 999,
        "meta_rev_at_epoch": 87990,
        "meta_bstar": 0.0004377178,
        "meta_mean_motion_dot": 1.361e-05,
        "meta_mean_motion_ddot": 0,
        "tle_line1": "1 34159U 97051EN  25348.88989806  .00001361  00000+0  43772-3 0  9998",
        "tle_line2": "2 34159  86.3508  47.3247 0026046 280.2682  79.5580 14.38499418879905"
      },
      "geometry": {
        "type": "Point",
        "coordinates": [
          36.422883698206824,
          -71.07924054844305
        ]
      }
    }
  ]
}